[{"OBJECT_NAME":"STARLINK-34515","OBJECT_ID":"2025-142S","EPOCH":"2026-03-09T21:14:59.650368","MEAN_MOTION":14.98337717,"ECCENTRICITY":0.000332,"INCLINATION":70.0014,"RA_OF_ASC_NODE":313.7945,"ARG_OF_PERICENTER":267.4823,"MEAN_ANOMALY":92.5956,"EPHEMERIS_TYPE":0,"CLASSIFICATION_TYPE":"U","NORAD_CAT_ID":64712,"ELEMENT_SET_NO":999,"REV_AT_EPOCH":3949,"BSTAR":0.00023972917,"MEAN_MOTION_DOT":2.769e-5,"MEAN_MOTION_DDOT":0},{"OBJECT_NAME":"CZ-4C DEB","OBJECT_ID":"2018-031C","EPOCH":"2026-03-09T22:35:49.335936","MEAN_MOTION":15.00077094,"ECCENTRICITY":0.00045193,"INCLINATION":97.7854,"RA_OF_ASC_NODE":153.1131,"ARG_OF_PERICENTER":226.9779,"MEAN_ANOMALY":133.1066,"EPHEMERIS_TYPE":0,"CLASSIFICATION_TYPE":"U","NORAD_CAT_ID":43261,"ELEMENT_SET_NO":999,"REV_AT_EPOCH":42952,"BSTAR":0.00069836513,"MEAN_MOTION_DOT":8.649e-5,"MEAN_MOTION_DDOT":0}]
